OBJECT_NAME,OBJECT_ID,NORAD_CAT_ID,EPOCH,MEAN_MOTION,ECCENTRICITY,INCLINATION,RA_OF_ASC_NODE,ARG_OF_PERICENTER,MEAN_ANOMALY,MEAN_MOTION_DOT,MEAN_MOTION_DDOT,REV_AT_EPOCH,BSTAR,orbital_period_min,altitude_estimated,drag_index,energy_index,orbit_type,orbit_family,anomaly_score,anomaly_flag
STARLINK-35103,2025-210M,65633,2025-10-13 22:00:01.999584,15.39556317,0.00014365,53.1589,271.2698,98.4359,310.9327,0.00080913,0.0,531,0.0020156018,93.5334410374804,454.557369583591,2.8954119856999996e-07,0.00210949667059988,LEO,LEO,-0.24551248908012963,1
STARLINK-35123,2025-210N,65634,2025-10-13 22:51:57.256128,15.4931797,0.00011919,53.1586,270.8817,91.7007,268.4139,0.0008735,0.0,523,0.0015606087,92.9441230194987,425.8570479018208,1.86008950953e-07,0.0020829981683699143,LEO,LEO,-0.25000943880022014,1
STARLINK-35150,2025-210P,65635,2025-10-13 22:50:57.930432,15.49324129,0.00011482,53.1586,270.8764,92.3238,267.7903,0.0012638,0.0,523,0.0022426076,92.94375354041878,425.8390349418414,2.57496204632e-07,0.0020829816073934483,LEO,LEO,-0.23934986930054808,1
STARLINK-35209,2025-210Q,65636,2025-10-13 23:40:47.403264,15.39658933,0.00029625,53.1594,271.0957,79.6991,280.4348,0.00051615,0.0,523,0.0012898765,93.52720717140801,454.2540906514896,3.8212591312500003e-07,0.0021092154902786152,LEO,LEO,-0.2566195771266558,1
STARLINK-35147,2025-210R,65637,2025-10-13 23:34:05.896416,15.39647097,0.00021079,53.159,271.0657,91.2741,268.8506,0.0005277,0.0,523,0.0013189051,93.52792615956201,454.28906992436896,2.7801200602900004e-07,0.002109247919489893,LEO,LEO,-0.26023386035717105,1
STARLINK-35213,2025-210S,65638,2025-10-13 22:00:01.999584,15.39560187,0.00011053,53.1588,271.3203,98.7626,284.859,0.00080117,0.0,531,0.001995842,93.53320592201051,454.54593128742,2.2060041626e-07,0.0021094860653089365,LEO,LEO,-0.25467311337811194,1
STARLINK-35127,2025-210T,65639,2025-10-13 22:00:01.999584,15.39552007,0.0001618,53.1589,271.2655,101.879,309.3292,0.00081932,0.0,531,0.0020408709,93.53370288581618,454.570108414282,3.3021291162e-07,0.0021095084817544705,LEO,LEO,-0.24404828210545343,1
STARLINK-35091,2025-210U,65640,2025-10-13 22:00:01.999584,15.39566114,0.00011347,53.1597,271.2133,94.6182,342.3183,0.00081649,0.0,531,0.0020330097,93.53284583918817,454.52841334894674,2.30685610659e-07,0.0021094698232005547,LEO,LEO,-0.23128611307469682,1
STARLINK-35134,2025-210V,65641,2025-10-13 22:00:01.999584,15.39611201,0.00019046,53.16,271.1616,105.2697,357.2863,0.00080419,0.0,531,0.0019998546,93.53010676102505,454.39515715135803,3.8089230711599997e-07,0.002109346274770627,LEO,LEO,-0.22629246924144975,1
STARLINK-35109,2025-210W,65642,2025-10-13 22:00:01.999584,15.39496804,0.00014601,53.1597,271.1098,115.7555,12.6852,0.00090956,0.0,531,0.002265992,93.53705680054144,454.73327415083077,3.3085749192e-07,0.0021096597692196457,LEO,LEO,-0.2140182537239712,1
STARLINK-35062,2025-210X,65643,2025-10-12 09:37:42.177504,15.48866894,0.00025772,53.1586,278.2587,65.4677,294.66,-0.00231743,0.0,499,-0.0043496248,92.97119110610934,427.1766148305678,-1.120985303456e-06,0.0020842116067922222,LEO,LEO,-0.20845297873105828,1
STARLINK-35141,2025-210Y,65644,2025-10-13 16:34:24.286368,15.49475403,0.00013412,53.1585,272.0866,89.3278,270.7885,0.00135524,0.0,519,0.0023887169,92.93467951875581,425.3966479003757,3.2037471062799996e-07,0.0020825749077097444,LEO,LEO,-0.23689685306443914,1
STARLINK-35237,2025-210Z,65645,2025-10-13 22:00:01.999584,15.44211764,0.0001402,53.1593,271.029,87.427,82.2412,-0.02026828,0.0,531,-0.048812463,93.25145900131868,440.8321327576923,-6.8435073126e-06,0.0020967965388393665,LEO,LEO,-0.07481246637478345,1
STARLINK-35183,2025-210AA,65646,2025-10-13 16:33:57.416832,15.49341634,0.00013584,53.1586,272.0833,66.4719,293.6433,0.00087177,0.0,519,0.0015562694,92.94270342960397,425.78783947974443,2.11403635296e-07,0.00208293453915975,LEO,LEO,-0.234895937140373,1
STARLINK-35202,2025-210AB,65647,2025-10-13 16:33:27.722016,15.49348537,0.0001092,53.1586,272.0806,73.9168,286.1961,0.00096207,0.0,519,0.0017142418,92.94228933073178,425.7676510972615,1.8719520456e-07,0.0020829159785005448,LEO,LEO,-0.2381011630305705,1
STARLINK-34868,2025-210AC,65648,2025-10-13 22:44:02.498496,15.49342666,0.00022356,53.1583,270.8418,94.9282,265.1982,0.0010897,0.0,523,0.0019377581,92.94264152149799,425.78482130264456,4.3320520083600003e-07,0.002082931764321393,LEO,LEO,-0.2435364431724505,1
STARLINK-35079,2025-210AD,65649,2025-10-13 22:44:32.243424,15.49328494,0.00016382,53.1585,270.8445,97.7956,262.3239,0.00126317,0.0,523,0.002241145,92.94349168537269,425.82626888806135,3.6714437389999995e-07,0.0020829698704352196,LEO,LEO,-0.23890670697562927,1
STARLINK-35328,2025-211A,65652,2025-10-13 13:30:57.552768,15.49241441,2.859e-05,97.6042,328.4183,101.0374,259.0909,0.00096199,0.0,486,0.0017456662,92.94871424756833,426.08087890148363,4.9908596658e-08,0.002083203964186948,LEO,LEO,-0.20990137694490796,1
STARLINK-34210,2025-211B,65653,2025-10-13 08:50:53.619360,15.49318794,0.00025199,97.604,328.2152,106.627,253.5257,0.00128782,0.0,483,0.0023202433,92.94407358747885,425.85463797786906,5.84678109167e-07,0.002082995952699336,LEO,LEO,-0.20280115448938757,1
STARLINK-35227,2025-211C,65654,2025-10-13 13:28:58.479744,15.49250699,4.995e-05,97.6041,328.4203,292.504,67.6158,0.00099641,0.0,486,0.0018066946,92.94815880538131,426.05380024662554,9.024439527e-08,0.002083179066673993,LEO,LEO,-0.1799787048760746,1
STARLINK-35240,2025-211D,65655,2025-10-13 13:30:25.630560,15.49294841,6.203e-05,97.6041,328.4187,88.5521,271.58,0.0008002,0.0,486,0.0014526734,92.94551055695408,425.9246933498698,9.0109331002e-08,0.0020830603618568824,LEO,LEO,-0.21482141997633736,1
STARLINK-35344,2025-211E,65656,2025-10-13 13:29:28.577184,15.49224516,0.00010195,97.6041,328.4197,92.461,267.6757,0.00096029,0.0,486,0.0017436583,92.94972969560212,426.1303834044229,1.77765963685e-07,0.0020832494816949983,LEO,LEO,-0.210725672526616,1
STARLINK-34540,2025-211F,65657,2025-10-13 13:28:29.011296,15.49236544,1.551e-05,97.6041,328.4206,98.4618,261.665,0.00081682,0.0,486,0.0014855064,92.94900805025162,426.09520220916147,2.3040204264e-08,0.002083217133855551,LEO,LEO,-0.21194492124952924,1
STARLINK-35282,2025-211G,65658,2025-10-13 13:27:29.341728,15.49253059,4.909e-05,97.604,328.4217,307.743,52.3776,0.00099307,0.0,486,0.0018005713,92.94801721608219,426.0468975434396,8.8390045117e-08,0.002083172720004126,LEO,LEO,-0.17045643222820372,1
STARLINK-35120,2025-211H,65659,2025-10-13 13:27:59.293152,15.49278305,3.312e-05,97.6041,328.4212,112.1588,247.9698,0.00081573,0.0,486,0.0014813869,92.94650259754332,425.9730572650469,4.9063534128000005e-08,0.0020831048285867874,LEO,LEO,-0.2112444000631724,1
STARLINK-35246,2025-211J,65660,2025-10-13 13:26:59.953632,15.49232899,5.604e-05,97.6041,328.4221,95.9444,264.187,0.00082889,0.0,486,0.0015073914,92.94922673856799,426.10586357252123,8.4474214056e-08,0.002083226936559057,LEO,LEO,-0.21146760935822034,1
STARLINK-35220,2025-211K,65661,2025-10-13 13:26:30.245856,15.4920495,8.905e-05,97.6041,328.4227,86.6861,273.4492,0.00099638,0.0,486,0.0018095367,92.95090362317781,426.18761378061936,1.61139243135e-07,0.002083302103676044,LEO,LEO,-0.21055020099979382,1
STARLINK-35176,2025-211L,65662,2025-10-13 13:26:00.400704,15.49237514,4.117e-05,97.6041,328.4234,347.2164,12.9076,0.00078667,0.0,486,0.0014312497,92.9489498535342,426.0923650358327,5.8924550149e-08,0.0020832145251916514,LEO,LEO,-0.14222596871782472,1
STARLINK-35190,2025-211M,65663,2025-10-13 13:25:30.928800,15.49211992,0.00010147,97.604,328.4234,88.7399,271.3968,0.0009048,0.0,486,0.0016448891,92.95048111143204,426.16701585441024,1.66906896977e-07,0.0020832831642666576,LEO,LEO,-0.21210709848773074,1
STARLINK-35201,2025-211N,65664,2025-10-13 13:25:01.248672,15.492188,0.0001114,97.604,328.4243,78.1688,281.9688,0.00095352,0.0,486,0.0017318663,92.95007264306372,426.14710252908935,1.9292990582e-07,0.0020832648544441604,LEO,LEO,-0.20539806899120805,1
STARLINK-35115,2025-211P,65665,2025-10-13 13:24:31.213440,15.49244513,3.8e-06,97.6039,328.4248,184.2138,175.9112,0.00094174,0.0,486,0.0017092158,92.94852993937955,426.0718936017938,6.49502004e-09,0.002083195702616642,LEO,LEO,-0.20287016078257164,1
STARLINK-35181,2025-211Q,65666,2025-10-13 08:44:59.641152,15.4925647,0.00018571,97.604,328.2211,99.7855,260.3605,0.00074115,0.0,483,0.0013483728,92.9478125723109,426.0369208284037,2.50406312688e-07,0.0020831635469660097,LEO,LEO,-0.21602401251058634,1
STARLINK-35361,2025-211R,65667,2025-10-13 08:44:29.844384,15.49243872,0.00017334,97.6038,328.2216,97.8893,262.2554,0.00142849,0.0,483,0.0025757255,92.9485683968547,426.0737684616797,4.464762581699999e-07,0.002083197426462378,LEO,LEO,-0.20097961323519736,1
STARLINK-35351,2025-211S,65668,2025-10-13 08:44:00.146112,15.4921896,0.00016599,97.6041,328.2218,100.1933,259.9505,0.0007339,0.0,483,0.0013370932,92.95006304338025,426.146634532598,2.21944100268e-07,0.0020832644241339615,LEO,LEO,-0.21562306227376404,1
STARLINK-35353,2025-211T,65669,2025-10-13 13:22:32.717568,15.4922016,0.00010046,97.6039,328.4267,78.7824,281.3539,0.00110275,0.0,486,0.0019987329,92.94999104581753,426.1431245614858,2.00792707134e-07,0.0020832611968117183,LEO,LEO,-0.20528869021142498,1
STARLINK-35359,2025-211U,65670,2025-10-13 13:22:02.817120,15.49230727,6.663e-05,97.6039,328.4271,98.6915,261.441,0.00077183,0.0,486,0.0014048727,92.94935705209518,426.11221653649227,9.3606668001e-08,0.0020832327778737164,LEO,LEO,-0.21500165510760372,1
STARLINK-35194,2025-211V,65671,2025-10-13 13:21:03.115584,15.49249171,3.286e-05,97.604,328.4283,286.4815,73.6399,0.00091444,0.0,486,0.0016600334,92.94825047868301,426.05826946379784,5.4548697524e-08,0.002083183175889274,LEO,LEO,-0.1841161441816529,1
STARLINK-35198,2025-211W,65672,2025-10-13 13:21:33.252768,15.49216267,0.00011602,97.6039,328.4278,78.2878,281.8502,0.00082583,0.0,486,0.0015027673,92.95022461831662,426.15451150926583,1.74351062146e-07,0.0020832716668102613,LEO,LEO,-0.20874275350590943,1
